start=new Date('2022-09-27T00:00:00.000Z').valueOf();
sats=[{"ECCENTRICITY":"0.00014000","BSTAR":"-0.00007021800000","MEAN_MOTION_DDOT":"0.0000000000000","MEAN_MOTION":"15.06395502","EPHEMERIS_TYPE":"0","FILE":"3584345","NORAD_CAT_ID":"46743","OBJECT_NAME":"STARLINK-1892","RCS_SIZE":"LARGE","INCLINATION":"53.0546","REF_FRAME":"TEME","MEAN_ELEMENT_THEORY":"SGP4","ARG_OF_PERICENTER":"90.4083","ELEMENT_SET_NO":"999","OBJECT_ID":"2020-074E","GP_ID":"213540440","SITE":"AFETR","TLE_LINE2":"2 46743  53.0546 220.7482 0001400  90.4083 269.7067 15.06395502106676","TIME_SYSTEM":"UTC","PERIOD":"95.592","MEAN_MOTION_DOT":"-0.00001327","SEMIMAJOR_AXIS":"6925.362","DECAY_DATE":null,"REV_AT_EPOCH":"10667","EPOCH":"2022-09-26T01:40:42.376224","OBJECT_TYPE":"PAYLOAD","LAUNCH_DATE":"2020-10-24","MEAN_ANOMALY":"269.7067","CLASSIFICATION_TYPE":"U","COUNTRY_CODE":"US","TLE_LINE1":"1 46743U 20074E   22269.06993491 -.00001327  00000-0 -70218-4 0  9996","PERIAPSIS":"546.258","CENTER_NAME":"EARTH","APOAPSIS":"548.197","RA_OF_ASC_NODE":"220.7482"},{"BSTAR":"-0.00006313400000","ECCENTRICITY":"0.00018450","FILE":"3584003","NORAD_CAT_ID":"46744","MEAN_MOTION_DDOT":"0.0000000000000","MEAN_MOTION":"15.06395386","EPHEMERIS_TYPE":"0","MEAN_ELEMENT_THEORY":"SGP4","REF_FRAME":"TEME","RCS_SIZE":"LARGE","INCLINATION":"53.0541","OBJECT_NAME":"STARLINK-1894","GP_ID":"213513501","SITE":"AFETR","OBJECT_ID":"2020-074F","ARG_OF_PERICENTER":"57.6612","ELEMENT_SET_NO":"999","DECAY_DATE":null,"REV_AT_EPOCH":"10667","EPOCH":"2022-09-26T02:05:52.775232","SEMIMAJOR_AXIS":"6925.363","PERIOD":"95.592","MEAN_MOTION_DOT":"-0.00001222","TLE_LINE2":"2 46744  53.0541 220.6865 0001845  57.6612 302.4556 15.06395386106670","TIME_SYSTEM":"UTC","LAUNCH_DATE":"2020-10-24","MEAN_ANOMALY":"302.4556","OBJECT_TYPE":"PAYLOAD","CENTER_NAME":"EARTH","TLE_LINE1":"1 46744U 20074F   22269.08741638 -.00001222  00000-0 -63134-4 0  9996","PERIAPSIS":"545.950","CLASSIFICATION_TYPE":"U","COUNTRY_CODE":"US","APOAPSIS":"548.505","RA_OF_ASC_NODE":"220.6865"},{"REF_FRAME":"TEME","MEAN_ELEMENT_THEORY":"SGP4","OBJECT_NAME":"STARLINK-1898","RCS_SIZE":"LARGE","INCLINATION":"53.0511","SITE":"AFETR","GP_ID":"213574614","ELEMENT_SET_NO":"999","ARG_OF_PERICENTER":"138.4704","OBJECT_ID":"2020-074G","ECCENTRICITY":"0.00021350","BSTAR":"0.00285180000000","NORAD_CAT_ID":"46745","FILE":"3584444","EPHEMERIS_TYPE":"0","MEAN_MOTION_DDOT":"0.0000000000000","MEAN_MOTION":"15.73260169","PERIAPSIS":"348.152","TLE_LINE1":"1 46745U 20074G   22268.97705564  .00421515  00000-0  28518-2 0  9996","CENTER_NAME":"EARTH","COUNTRY_CODE":"US","CLASSIFICATION_TYPE":"U","RA_OF_ASC_NODE":"134.2491","APOAPSIS":"351.025","SEMIMAJOR_AXIS":"6727.724","EPOCH":"2022-09-25T23:26:57.607296","REV_AT_EPOCH":"10786","DECAY_DATE":null,"TIME_SYSTEM":"UTC","TLE_LINE2":"2 46745  53.0511 134.2491 0002135 138.4704 221.6476 15.73260169107865","MEAN_MOTION_DOT":"0.00421515","PERIOD":"91.530","MEAN_ANOMALY":"221.6476","LAUNCH_DATE":"2020-10-24","OBJECT_TYPE":"PAYLOAD"},{"COUNTRY_CODE":"US","CLASSIFICATION_TYPE":"U","PERIAPSIS":"546.184","TLE_LINE1":"1 46746U 20074H   22269.63388518  .00000848  00000-0  75864-4 0  9997","CENTER_NAME":"EARTH","RA_OF_ASC_NODE":"218.2341","APOAPSIS":"548.312","TIME_SYSTEM":"UTC","TLE_LINE2":"2 46746  53.0540 218.2341 0001536  54.0499 306.0633 15.06388806106758","MEAN_MOTION_DOT":"0.00000848","PERIOD":"95.593","SEMIMAJOR_AXIS":"6925.383","REV_AT_EPOCH":"10675","EPOCH":"2022-09-26T15:12:47.679552","DECAY_DATE":null,"OBJECT_TYPE":"PAYLOAD","MEAN_ANOMALY":"306.0633","LAUNCH_DATE":"2020-10-24","OBJECT_NAME":"STARLINK-1905","INCLINATION":"53.0540","RCS_SIZE":"LARGE","REF_FRAME":"TEME","MEAN_ELEMENT_THEORY":"SGP4","ELEMENT_SET_NO":"999","ARG_OF_PERICENTER":"54.0499","OBJECT_ID":"2020-074H","SITE":"AFETR","GP_ID":"213598222","ECCENTRICITY":"0.00015360","BSTAR":"0.00007586400000","EPHEMERIS_TYPE":"0","MEAN_MOTION":"15.06388806","MEAN_MOTION_DDOT":"0.0000000000000","NORAD_CAT_ID":"46746","FILE":"3584555"},{"BSTAR":"-0.00008470000000","ECCENTRICITY":"0.00013670","NORAD_CAT_ID":"46747","FILE":"3584555","MEAN_MOTION_DDOT":"0.0000000000000","MEAN_MOTION":"15.06388014","EPHEMERIS_TYPE":"0","MEAN_ELEMENT_THEORY":"SGP4","REF_FRAME":"TEME","RCS_SIZE":"LARGE","INCLINATION":"53.0533","OBJECT_NAME":"STARLINK-1908","GP_ID":"213598974","SITE":"AFETR","OBJECT_ID":"2020-074J","ARG_OF_PERICENTER":"80.9335","ELEMENT_SET_NO":"999","DECAY_DATE":null,"EPOCH":"2022-09-26T21:08:25.407168","REV_AT_EPOCH":"10679","SEMIMAJOR_AXIS":"6925.385","PERIOD":"95.593","MEAN_MOTION_DOT":"-0.00001542","TLE_LINE2":"2 46747  53.0533 217.1290 0001367  80.9335 279.1808 15.06388014106790","TIME_SYSTEM":"UTC","LAUNCH_DATE":"2020-10-24","MEAN_ANOMALY":"279.1808","OBJECT_TYPE":"PAYLOAD","CENTER_NAME":"EARTH","TLE_LINE1":"1 46747U 20074J   22269.88084962 -.00001542  00000-0 -84700-4 0  9994","PERIAPSIS":"546.304","CLASSIFICATION_TYPE":"U","COUNTRY_CODE":"US","APOAPSIS":"548.197","RA_OF_ASC_NODE":"217.1290"},{"OBJECT_TYPE":"PAYLOAD","LAUNCH_DATE":"2020-10-24","MEAN_ANOMALY":"272.2084","PERIOD":"95.592","MEAN_MOTION_DOT":"-0.00000554","TLE_LINE2":"2 46748  53.0538 218.5771 0001164  87.9038 272.2084 15.06396669106747","TIME_SYSTEM":"UTC","DECAY_DATE":null,"EPOCH":"2022-09-26T13:21:19.777824","REV_AT_EPOCH":"10674","SEMIMAJOR_AXIS":"6925.359","APOAPSIS":"548.030","RA_OF_ASC_NODE":"218.5771","CLASSIFICATION_TYPE":"U","COUNTRY_CODE":"US","CENTER_NAME":"EARTH","TLE_LINE1":"1 46748U 20074K   22269.55647891 -.00000554  00000-0 -18332-4 0  9995","PERIAPSIS":"546.418","MEAN_MOTION":"15.06396669","MEAN_MOTION_DDOT":"0.0000000000000","EPHEMERIS_TYPE":"0","NORAD_CAT_ID":"46748","FILE":"3584345","BSTAR":"-0.00001833200000","ECCENTRICITY":"0.00011640","OBJECT_ID":"2020-074K","ARG_OF_PERICENTER":"87.9038","ELEMENT_SET_NO":"999","GP_ID":"213540688","SITE":"AFETR","INCLINATION":"53.0538","RCS_SIZE":"LARGE","OBJECT_NAME":"STARLINK-1910","MEAN_ELEMENT_THEORY":"SGP4","REF_FRAME":"TEME"},{"OBJECT_NAME":"STARLINK-1911","RCS_SIZE":"LARGE","INCLINATION":"53.0535","REF_FRAME":"TEME","MEAN_ELEMENT_THEORY":"SGP4","ELEMENT_SET_NO":"999","ARG_OF_PERICENTER":"73.2483","OBJECT_ID":"2020-074L","SITE":"AFETR","GP_ID":"213513828","ECCENTRICITY":"0.00014390","BSTAR":"-0.00017329000000","EPHEMERIS_TYPE":"0","MEAN_MOTION_DDOT":"0.0000000000000","MEAN_MOTION":"15.06394120","NORAD_CAT_ID":"46749","FILE":"3584034","COUNTRY_CODE":"US","CLASSIFICATION_TYPE":"U","PERIAPSIS":"546.235","TLE_LINE1":"1 46749U 20074L   22269.09941995 -.00002861  00000-0 -17329-3 0  9994","CENTER_NAME":"EARTH","RA_OF_ASC_NODE":"220.6366","APOAPSIS":"548.228","TIME_SYSTEM":"UTC","TLE_LINE2":"2 46749  53.0535 220.6366 0001439  73.2483 286.8664 15.06394120106695","MEAN_MOTION_DOT":"-0.00002861","PERIOD":"95.593","SEMIMAJOR_AXIS":"6925.367","EPOCH":"2022-09-26T02:23:09.883680","REV_AT_EPOCH":"10669","DECAY_DATE":null,"OBJECT_TYPE":"PAYLOAD","MEAN_ANOMALY":"286.8664","LAUNCH_DATE":"2020-10-24"},{"OBJECT_TYPE":"PAYLOAD","LAUNCH_DATE":"2020-10-24","MEAN_ANOMALY":"269.5179","PERIOD":"95.592","MEAN_MOTION_DOT":"-0.00000897","TLE_LINE2":"2 46751  53.0555 220.6572 0001459  90.5977 269.5179 15.06396925106684","TIME_SYSTEM":"UTC","DECAY_DATE":null,"REV_AT_EPOCH":"10668","EPOCH":"2022-09-26T02:17:51.639648","SEMIMAJOR_AXIS":"6925.358","APOAPSIS":"548.233","RA_OF_ASC_NODE":"220.6572","CLASSIFICATION_TYPE":"U","COUNTRY_CODE":"US","CENTER_NAME":"EARTH","TLE_LINE1":"1 46751U 20074N   22269.09573657 -.00000897  00000-0 -41306-4 0  9993","PERIAPSIS":"546.213","MEAN_MOTION":"15.06396925","MEAN_MOTION_DDOT":"0.0000000000000","EPHEMERIS_TYPE":"0","FILE":"3584053","NORAD_CAT_ID":"46751","BSTAR":"-0.00004130600000","ECCENTRICITY":"0.00014590","OBJECT_ID":"2020-074N","ARG_OF_PERICENTER":"90.5977","ELEMENT_SET_NO":"999","GP_ID":"213514457","SITE":"AFETR","RCS_SIZE":"LARGE","INCLINATION":"53.0555","OBJECT_NAME":"STARLINK-1920","MEAN_ELEMENT_THEORY":"SGP4","REF_FRAME":"TEME"},{"OBJECT_NAME":"STARLINK-1921","INCLINATION":"53.0557","RCS_SIZE":"LARGE","REF_FRAME":"TEME","MEAN_ELEMENT_THEORY":"SGP4","ELEMENT_SET_NO":"999","ARG_OF_PERICENTER":"72.4287","OBJECT_ID":"2020-074P","SITE":"AFETR","GP_ID":"213541694","ECCENTRICITY":"0.00016440","BSTAR":"-0.00016454000000","EPHEMERIS_TYPE":"0","MEAN_MOTION":"15.06384396","MEAN_MOTION_DDOT":"0.0000000000000","FILE":"3584345","NORAD_CAT_ID":"46752","COUNTRY_CODE":"US","CLASSIFICATION_TYPE":"U","PERIAPSIS":"546.123","TLE_LINE1":"1 46752U 20074P   22269.57123431 -.00002730  00000-0 -16454-3 0  9991","CENTER_NAME":"EARTH","RA_OF_ASC_NODE":"218.5091","APOAPSIS":"548.400","TIME_SYSTEM":"UTC","TLE_LINE2":"2 46752  53.0557 218.5091 0001644  72.4287 287.6881 15.06384396106745","MEAN_MOTION_DOT":"-0.00002730","PERIOD":"95.593","SEMIMAJOR_AXIS":"6925.396","EPOCH":"2022-09-26T13:42:34.644384","REV_AT_EPOCH":"10674","DECAY_DATE":null,"OBJECT_TYPE":"PAYLOAD","MEAN_ANOMALY":"287.6881","LAUNCH_DATE":"2020-10-24"},{"BSTAR":"0.00004024900000","ECCENTRICITY":"0.00016130","EPHEMERIS_TYPE":"0","MEAN_MOTION_DDOT":"0.0000000000000","MEAN_MOTION":"15.06397925","NORAD_CAT_ID":"46753","FILE":"3584471","INCLINATION":"53.0554","RCS_SIZE":"LARGE","OBJECT_NAME":"STARLINK-1922","MEAN_ELEMENT_THEORY":"SGP4","REF_FRAME":"TEME","OBJECT_ID":"2020-074Q","ELEMENT_SET_NO":"999","ARG_OF_PERICENTER":"65.8543","SITE":"AFETR","GP_ID":"213575468","MEAN_MOTION_DOT":"0.00000318","PERIOD":"95.592","TIME_SYSTEM":"UTC","TLE_LINE2":"2 46753  53.0554 219.8548 0001613  65.8543 294.2614 15.06397925106729","EPOCH":"2022-09-26T06:32:37.939776","REV_AT_EPOCH":"10672","DECAY_DATE":null,"SEMIMAJOR_AXIS":"6925.355","OBJECT_TYPE":"PAYLOAD","MEAN_ANOMALY":"294.2614","LAUNCH_DATE":"2020-10-24","COUNTRY_CODE":"US","CLASSIFICATION_TYPE":"U","CENTER_NAME":"EARTH","PERIAPSIS":"546.103","TLE_LINE1":"1 46753U 20074Q   22269.27266134  .00000318  00000-0  40249-4 0  9995","RA_OF_ASC_NODE":"219.8548","APOAPSIS":"548.337"}];
